*******************************************************************************
 Revised: April 12, 2021                 Earth                              399
 
 GEOPHYSICAL PROPERTIES (revised May 9, 2022):
  Vol. Mean Radius (km)    = 6371.01+-0.02   Mass x10^24 (kg)= 5.97219+-0.0006
  Equ. radius, km          = 6378.137        Mass layers:
  Polar axis, km           = 6356.752          Atmos         = 5.1   x 10^18 kg
  Flattening               = 1/298.257223563   oceans        = 1.4   x 10^21 kg
  Density, g/cm^3          = 5.51              crust         = 2.6   x 10^22 kg
  J2 (IERS 2010)           = 0.00108262545     mantle        = 4.043 x 10^24 kg
  g_p, m/s^2  (polar)      = 9.8321863685      outer core    = 1.835 x 10^24 kg
  g_e, m/s^2  (equatorial) = 9.7803267715      inner core    = 9.675 x 10^22 kg
  g_o, m/s^2               = 9.82022         Fluid core rad  = 3480 km
  GM, km^3/s^2             = 398600.435436   Inner core rad  = 1215 km
  GM 1-sigma, km^3/s^2     =      0.0014     Escape velocity = 11.186 km/s
  Rot. Rate (rad/s)        = 0.00007292115   Surface area:
  Mean sidereal day, hr    = 23.9344695944     land          = 1.48 x 10^8 km
  Mean solar day 2000.0, s = 86400.002         sea           = 3.62 x 10^8 km
  Mean solar day 1820.0, s = 86400.0         Love no., k2    = 0.299
  Moment of inertia        = 0.3308          Atm. pressure   = 1.0 bar
  Mean surface temp (Ts), K= 287.6           Volume, km^3    = 1.08321 x 10^12
  Mean effect. temp (Te), K= 255             Magnetic moment = 0.61 gauss Rp^3
  Geometric albedo         = 0.367           Vis. mag. V(1,0)= -3.86
  Solar Constant (W/m^2)   = 1367.6 (mean), 1414 (perihelion), 1322 (aphelion)
 HELIOCENTRIC ORBIT CHARACTERISTICS:
  Obliquity to orbit, deg  = 23.4392911  Sidereal orb period  = 1.0000174 y
  Orbital speed, km/s      = 29.79       Sidereal orb period  = 365.25636 d
  Mean daily motion, deg/d = 0.9856474   Hill's sphere radius = 234.9       
*******************************************************************************


*******************************************************************************
Ephemeris / WWW_USER Fri Jan  3 20:00:42 2025 Pasadena, USA      / Horizons
*******************************************************************************
Target body name: Earth (399)                     {source: DE441}
Center body name: Solar System Barycenter (0)     {source: DE441}
Center-site name: BODY CENTER
*******************************************************************************
Start time      : A.D. 2010-Jan-01 00:00:00.0000 TDB
Stop  time      : A.D. 2030-Jan-01 00:00:00.0000 TDB
Step-size       : 1440 minutes
*******************************************************************************
Center geodetic : 0.0, 0.0, 0.0                   {E-lon(deg),Lat(deg),Alt(km)}
Center cylindric: 0.0, 0.0, 0.0                   {E-lon(deg),Dxy(km),Dz(km)}
Center radii    : (undefined)
Output units    : KM-S
Calendar mode   : Mixed Julian/Gregorian
Output type     : GEOMETRIC cartesian states
Output format   : 3 (position, velocity, LT, range, range-rate)
Reference frame : Ecliptic of J2000.0
*******************************************************************************
JDTDB
   X     Y     Z
   VX    VY    VZ
   LT    RG    RR
*******************************************************************************
$$SOE
2459707.500000000 = A.D. 2022-May-08 00:00:00.0000 TDB 
 X =-1.040995692382180E+08 Y =-1.102526764260128E+08 Z = 3.409425813765079E+04
 VX= 2.134233852264192E+01 VY=-2.039993815906820E+01 VZ= 8.415251782549760E-04
 LT= 5.057911265774653E+02 RG= 1.516323650712474E+08 RR= 1.808292240080916E-01
2459708.500000000 = A.D. 2022-May-09 00:00:00.0000 TDB 
 X =-1.022409599613338E+08 Y =-1.119991417592420E+08 Z = 3.417637607526779E+04
 VX= 2.167987925082859E+01 VY=-2.002662990836543E+01 VZ= 1.061551510624703E-03
 LT= 5.058422553129394E+02 RG= 1.516476930805297E+08 RR= 1.740463792109497E-01
2459709.500000000 = A.D. 2022-May-10 00:00:00.0000 TDB 
 X =-1.003534844694035E+08 Y =-1.137131306893493E+08 Z = 3.427794201873988E+04
 VX= 2.201053296703897E+01 VY=-1.964820424130771E+01 VZ= 1.290131416237017E-03
 LT= 5.058914831809930E+02 RG= 1.516624512240955E+08 RR= 1.676432264522229E-01
2459710.500000000 = A.D. 2022-May-11 00:00:00.0000 TDB 
 X =-9.843773876306464E+07 Y =-1.153942100970134E+08 Z = 3.439926248912513E+04
 VX= 2.233428142128137E+01 VY=-1.926487040979287E+01 VZ= 1.516972921732140E-03
 LT= 5.059389239825922E+02 RG= 1.516766736186165E+08 RR= 1.616490864963973E-01
2459711.500000000 = A.D. 2022-May-12 00:00:00.0000 TDB 
 X =-9.649431926363644E+07 Y =-1.170419649567917E+08 Z = 3.453967816915363E+04
 VX= 2.265113440044222E+01 VY=-1.887683699823865E+01 VZ= 1.729974601761164E-03
 LT= 5.059846987390219E+02 RG= 1.516903965453608E+08 RR= 1.560834450636665E-01
2459712.500000000 = A.D. 2022-May-13 00:00:00.0000 TDB 
 X =-9.452382007157244E+07 Y =-1.186559979340670E+08 Z = 3.469740389294922E+04
 VX= 2.296113686799820E+01 VY=-1.848430290482953E+01 VZ= 1.915216794223795E-03
 LT= 5.060289315514473E+02 RG= 1.517036572089221E+08 RR= 1.509462870774759E-01
2459713.500000000 = A.D. 2022-May-14 00:00:00.0000 TDB 
 X =-9.252682973044789E+07 Y =-1.202359279302250E+08 Z = 3.486939229488373E+04
 VX= 2.326437254869261E+01 VY=-1.808744201119563E+01 VZ= 2.057570966093714E-03
 LT= 5.060717422264598E+02 RG= 1.517164915264128E+08 RR= 1.462056499246333E-01
2459714.500000000 = A.D. 2022-May-15 00:00:00.0000 TDB 
 X =-9.050392800576204E+07 Y =-1.217813870729335E+08 Z = 3.505128691261262E+04
 VX= 2.356095916898738E+01 VY=-1.768638307011578E+01 VZ= 2.142190635613161E-03
 LT= 5.061132352731558E+02 RG= 1.517289308288717E+08 RR= 1.417856513865269E-01
2459715.500000000 = A.D. 2022-May-16 00:00:00.0000 TDB 
 X =-8.845568359343487E+07 Y =-1.232920159424238E+08 Z = 3.523754350750893E+04
 VX= 2.385103124309283E+01 VY=-1.728119023775613E+01 VZ= 2.156876333995861E-03
 LT= 5.061534861745726E+02 RG= 1.517409977455441E+08 RR= 1.375606170678140E-01
2459716.500000000 = A.D. 2022-May-17 00:00:00.0000 TDB 
 X =-8.638265387283531E+07 Y =-1.247674574560326E+08 Z = 3.542177713912725E+04
 VX= 2.413471052862387E+01 VY=-1.687185307744057E+01 VZ= 2.094804241077775E-03
 LT= 5.061925275909936E+02 RG= 1.517527020677368E+08 RR= 1.333613112303310E-01
2459717.500000000 = A.D. 2022-May-18 00:00:00.0000 TDB 
 X =-8.428538751266369E+07 Y =-1.262073506081245E+08 Z = 3.559732610002905E+04
 VX= 2.441207131824154E+01 VY=-1.645829417364189E+01 VZ= 1.956632005192915E-03
 LT= 5.062303394522286E+02 RG= 1.517640377785580E+08 RR= 1.289955254032949E-01
2459718.500000000 = A.D. 2022-May-19 00:00:00.0000 TDB 
 X =-8.216442985466672E+07 Y =-1.276113257120394E+08 Z = 3.575793365999311E+04
 VX= 2.468311304901201E+01 VY=-1.604039569179528E+01 VZ= 1.750992615289881E-03
 LT= 5.062668465537433E+02 RG= 1.517749823322555E+08 RR= 1.242781306072633E-01
2459719.500000000 = A.D. 2022-May-20 00:00:00.0000 TDB 
 X =-8.002032993437603E+07 Y =-1.289790024876186E+08 Z = 3.589838779153675E+04
 VX= 2.494775101452404E+01 VY=-1.561803664640803E+01 VZ= 1.493054866467780E-03
 LT= 5.063019249256892E+02 RG= 1.517854985636038E+08 RR= 1.190599493046568E-01
2459720.500000000 = A.D. 2022-May-21 00:00:00.0000 TDB 
 X =-7.785364740899907E+07 Y =-1.303099913482933E+08 Z = 3.601497213143855E+04
 VX= 2.520582727307821E+01 VY=-1.519112748068802E+01 VZ= 1.201757903383616E-03
 LT= 5.063354150832216E+02 RG= 1.517955386602493E+08 RR= 1.132453881181896E-01
2459721.500000000 = A.D. 2022-May-22 00:00:00.0000 TDB 
 X =-7.566495790517180E+07 Y =-1.316038971624900E+08 Z = 3.610566046518087E+04
 VX= 2.545713461646223E+01 VY=-1.475963166343129E+01 VZ= 8.968265743662940E-04
 LT= 5.063671382154989E+02 RG= 1.518050490160502E+08 RR= 1.067952675825623E-01
2459722.500000000 = A.D. 2022-May-23 00:00:00.0000 TDB 
 X =-7.345485611513907E+07 Y =-1.328603242069164E+08 Z = 3.617007837338001E+04
 VX= 2.570144306039045E+01 VY=-1.432357195454044E+01 VZ= 5.964723980644848E-04
 LT= 5.063969114145699E+02 RG= 1.518139747965821E+08 RR= 9.971831199107010E-02
2459723.500000000 = A.D. 2022-May-24 00:00:00.0000 TDB 
 X =-7.122395679042828E+07 Y =-1.340788811348456E+08 Z = 3.620930975528806E+04
 VX= 2.593852116777958E+01 VY=-1.388302548209441E+01 VZ= 3.161079378459775E-04
 LT= 5.064245595982520E+02 RG= 1.518222635135275E+08 RR= 9.205780276771998E-02
2459724.500000000 = A.D. 2022-May-25 00:00:00.0000 TDB 
 X =-6.897289422654638E+07 Y =-1.352591852583488E+08 Z = 3.622563148692995E+04
 VX= 2.616814960604612E+01 VY=-1.343811374942362E+01 VZ= 6.791777163872581E-05
 LT= 5.064499235688447E+02 RG= 1.518298674406161E+08 RR= 8.387878451607848E-02
2459725.500000000 = A.D. 2022-May-26 00:00:00.0000 TDB 
 X =-6.670232087898498E+07 Y =-1.364008659250138E+08 Z = 3.622223558239639E+04
 VX= 2.639012806675091E+01 VY=-1.298899223834024E+01 VZ=-1.390611009792764E-04
 LT= 5.064728648088426E+02 RG= 1.518367450513446E+08 RR= 7.525841927128937E-02
2459726.500000000 = A.D. 2022-May-27 00:00:00.0000 TDB 
 X =-6.441290557892107E+07 Y =-1.375035670665540E+08 Z = 3.620296881686151E+04
 VX= 2.660427803670942E+01 VY=-1.253584181772239E+01 VZ=-2.986567640519411E-04
 LT= 5.064932680003268E+02 RG= 1.518428617742707E+08 RR= 6.627974483038511E-02
2459727.500000000 = A.D. 2022-May-28 00:00:00.0000 TDB 
 X =-6.210533160633013E+07 Y =-1.385669490990354E+08 Z = 3.617209855904430E+04
 VX= 2.681044362531365E+01 VY=-1.207886227370882E+01 VZ=-4.072569953814664E-04
 LT= 5.065110421322464E+02 RG= 1.518481903249677E+08 RR= 5.702792534090771E-02
2459728.500000000 = A.D. 2022-May-29 00:00:00.0000 TDB 
 X =-5.978029472547515E+07 Y =-1.395906903354719E+08 Z = 3.613410346270353E+04
 VX= 2.700849174458957E+01 VY=-1.161826736173944E+01 VZ=-4.635418369343114E-04
 LT= 5.065261207497809E+02 RG= 1.518527107807817E+08 RR= 4.758787747902935E-02
